{
  "type": "FeatureCollection",
  "name": "Ấp Giồng Giữa",
  "crs": {
    "type": "name",
    "properties": {
      "name": "urn:ogc:def:crs:OGC:1.3:CRS84"
    }
  },
  "features": [
    {
      "type": "Feature",
      "properties": {
        "ten": "Ấp Giồng Giữa",
        "ma": "3006004",
        "loai": "Ấp",
        "dien_tich_ha": "902.74",
        "dien_tich_km2": "9.0274",
        "dan_so": "2716",
        "so_ho": "705",
        "mat_do_km2": "300.86",
        "sap_nhap_tu": [
          "Ấp Mé Rạch B",
          "Ấp Giồng Giữa",
          "Ấp Bến Tranh",
          "Ấp Vàm Bến Tranh"
        ]
      },
      "geometry": {
        "type": "Polygon",
        "coordinates": [
          [
            [
              106.28546492627783,
              9.628980197673432
            ],
            [
              106.2854779094088,
              9.62898091042579
            ],
            [
              106.28548060447841,
              9.629055106882408
            ],
            [
              106.2854847517477,
              9.629193880759223
            ],
            [
              106.28540168046595,
              9.62935979610032
            ],
            [
              106.28511947627315,
              9.629853729353291
            ],
            [
              106.28511047839933,
              9.630060342587917
            ],
            [
              106.28502860037314,
              9.63137386208614
            ],
            [
              106.2850428167786,
              9.631651396362356
            ],
            [
              106.28508416545361,
              9.63192109340868
            ],
            [
              106.28498939603428,
              9.632111085058261
            ],
            [
              106.2849638666947,
              9.63281265433668
            ],
            [
              106.2849577079527,
              9.633498809376961
            ],
            [
              106.28496016021693,
              9.633850327874939
            ],
            [
              106.28430610124794,
              9.633579673809603
            ],
            [
              106.28407867087941,
              9.633491044036106
            ],
            [
              106.2837475689945,
              9.63340689905985
            ],
            [
              106.28356993874057,
              9.633381354186387
            ],
            [
              106.283444113367,
              9.63337965090506
            ],
            [
              106.28319323317062,
              9.63339432497675
            ],
            [
              106.28314583737986,
              9.633386024211122
            ],
            [
              106.28296906931195,
              9.633299719789623
            ],
            [
              106.28275467203886,
              9.633137688310786
            ],
            [
              106.28255140881846,
              9.633094526757663
            ],
            [
              106.28243103910096,
              9.633048508534717
            ],
            [
              106.28228630612219,
              9.632946760924927
            ],
            [
              106.2820781410423,
              9.63280595174876
            ],
            [
              106.2818334678869,
              9.632760245388614
            ],
            [
              106.281670026337,
              9.63281950074097
            ],
            [
              106.28152660576143,
              9.632892065394554
            ],
            [
              106.28144806346431,
              9.632928860446814
            ],
            [
              106.28133076452117,
              9.632950282703993
            ],
            [
              106.28123080093853,
              9.632942824027916
            ],
            [
              106.28103843598713,
              9.63284242422079
            ],
            [
              106.28088696572745,
              9.632748362081132
            ],
            [
              106.28068028430229,
              9.632768217697553
            ],
            [
              106.28056586092632,
              9.632772273954782
            ],
            [
              106.28044655778028,
              9.63279379085913
            ],
            [
              106.28023018764394,
              9.632799614647041
            ],
            [
              106.27997215999193,
              9.632796400809081
            ],
            [
              106.2798412592443,
              9.632806280493638
            ],
            [
              106.27968119072632,
              9.632810530054764
            ],
            [
              106.27958089580139,
              9.632795809111668
            ],
            [
              106.2795793510529,
              9.632854785475383
            ],
            [
              106.27957935058623,
              9.632854791191756
            ],
            [
              106.27957935061175,
              9.63285480231774
            ],
            [
              106.27957454780422,
              9.633038166944354
            ],
            [
              106.27962302212501,
              9.633110198743433
            ],
            [
              106.27967867986844,
              9.633213098201319
            ],
            [
              106.27977903823279,
              9.633364719448968
            ],
            [
              106.27978475565934,
              9.633394633121123
            ],
            [
              106.27978134876234,
              9.633422668753159
            ],
            [
              106.27978100236338,
              9.633426557281423
            ],
            [
              106.27978834671178,
              9.633450789359305
            ],
            [
              106.2798064801937,
              9.633531378392513
            ],
            [
              106.27988237068988,
              9.633887071110836
            ],
            [
              106.2798956184239,
              9.633950764010466
            ],
            [
              106.2798956278046,
              9.633950881525742
            ],
            [
              106.27992030516288,
              9.633980833694928
            ],
            [
              106.27993720696409,
              9.634005098404202
            ],
            [
              106.27993166204108,
              9.634046357203449
            ],
            [
              106.27992599090635,
              9.634076296621382
            ],
            [
              106.27987315563543,
              9.634226248664476
            ],
            [
              106.27994031692002,
              9.6342842133731
            ],
            [
              106.28013105837053,
              9.634412529740336
            ],
            [
              106.28015755491954,
              9.634437649643639
            ],
            [
              106.28024167905664,
              9.634549977913657
            ],
            [
              106.28036084105342,
              9.634712792016652
            ],
            [
              106.28037022157564,
              9.634738948107415
            ],
            [
              106.28039888099035,
              9.634878714946343
            ],
            [
              106.28047914789809,
              9.635042280034806
            ],
            [
              106.28051214622819,
              9.63511418441174
            ],
            [
              106.28068426606215,
              9.635177350748865
            ],
            [
              106.28068443535392,
              9.635264094919195
            ],
            [
              106.28067693125783,
              9.635273469614871
            ],
            [
              106.28066365926529,
              9.635286519078809
            ],
            [
              106.2806400738532,
              9.635299646134383
            ],
            [
              106.28064768093726,
              9.635406424339546
            ],
            [
              106.28063250108286,
              9.635445625459937
            ],
            [
              106.28060068751083,
              9.635509603149998
            ],
            [
              106.28058245188878,
              9.635681293446726
            ],
            [
              106.28034152110189,
              9.635772694442258
            ],
            [
              106.28039888869618,
              9.635878507478704
            ],
            [
              106.28053418278337,
              9.636035428891566
            ],
            [
              106.28054384184422,
              9.636115331812036
            ],
            [
              106.28055784732581,
              9.63634531385471
            ],
            [
              106.28054471589581,
              9.636495605433858
            ],
            [
              106.28039839229045,
              9.63669330741934
            ],
            [
              106.28005858730033,
              9.637144783353632
            ],
            [
              106.27972801973135,
              9.637492986865146
            ],
            [
              106.27902879885939,
              9.638189569540852
            ],
            [
              106.27786670187285,
              9.639309694164025
            ],
            [
              106.27768627989646,
              9.639657647595245
            ],
            [
              106.27736645808152,
              9.64000564409811
            ],
            [
              106.27746211633797,
              9.640399898943398
            ],
            [
              106.27765232588297,
              9.640784447103714
            ],
            [
              106.27754913301237,
              9.641197865871748
            ],
            [
              106.27742722559428,
              9.641714668530131
            ],
            [
              106.27719215364289,
              9.64242873561234
            ],
            [
              106.27706966466444,
              9.642691931910301
            ],
            [
              106.27725219020337,
              9.643818423950135
            ],
            [
              106.27737650816229,
              9.644353476957942
            ],
            [
              106.27747317398112,
              9.64522646440687
            ],
            [
              106.27758765137031,
              9.645601870677194
            ],
            [
              106.27741478746536,
              9.645775541364811
            ],
            [
              106.27733191366943,
              9.646085432230029
            ],
            [
              106.27740149159207,
              9.646270259539689
            ],
            [
              106.27752097349938,
              9.646419984501247
            ],
            [
              106.27770037930425,
              9.64664479746704
            ],
            [
              106.27783702577217,
              9.646793941069408
            ],
            [
              106.27794400386725,
              9.64691828813026
            ],
            [
              106.27808414380435,
              9.647279531787447
            ],
            [
              106.2782444416132,
              9.647531059285074
            ],
            [
              106.27841301222611,
              9.647774430854172
            ],
            [
              106.2784954631,
              9.648009859835339
            ],
            [
              106.27848375974429,
              9.648269913010807
            ],
            [
              106.27840210124711,
              9.648379768083682
            ],
            [
              106.2781852035472,
              9.648477723013105
            ],
            [
              106.27776127546609,
              9.648606162376176
            ],
            [
              106.27726835285452,
              9.648804736342667
            ],
            [
              106.27686761738792,
              9.649114399699904
            ],
            [
              106.27655716866262,
              9.649501071486062
            ],
            [
              106.2761119167787,
              9.650066883120894
            ],
            [
              106.27579275306152,
              9.650189478550347
            ],
            [
              106.27533587523901,
              9.650283054991348
            ],
            [
              106.2750764972879,
              9.650503286382458
            ],
            [
              106.27476175922386,
              9.650768723006191
            ],
            [
              106.27455302184212,
              9.650850383185238
            ],
            [
              106.27427451620538,
              9.650863215237038
            ],
            [
              106.27399199380748,
              9.650912582827393
            ],
            [
              106.27378326560867,
              9.650998401523939
            ],
            [
              106.27350502074214,
              9.651165566885185
            ],
            [
              106.27332531736974,
              9.651393539328758
            ],
            [
              106.27318265519418,
              9.65172296200359
            ],
            [
              106.27310103124704,
              9.6518490902039
            ],
            [
              106.2730651392736,
              9.651852154411209
            ],
            [
              106.2728957862182,
              9.651824506661068
            ],
            [
              106.27284779964208,
              9.651797942620489
            ],
            [
              106.27269503992389,
              9.651654981292625
            ],
            [
              106.27258798195187,
              9.651415537371808
            ],
            [
              106.27260298316638,
              9.650761457991274
            ],
            [
              106.27267536069567,
              9.65017623477849
            ],
            [
              106.27265423086689,
              9.649900071270153
            ],
            [
              106.27255554038527,
              9.649733752407077
            ],
            [
              106.27228846600096,
              9.649364653695056
            ],
            [
              106.2719225634201,
              9.648768207323322
            ],
            [
              106.27175789326358,
              9.648435405309666
            ],
            [
              106.27149917809611,
              9.648135362443268
            ],
            [
              106.27131881078363,
              9.648111445355102
            ],
            [
              106.27103648384619,
              9.648246069201425
            ],
            [
              106.2707417551542,
              9.648336147080407
            ],
            [
              106.27049170367187,
              9.648279836882942
            ],
            [
              106.27031006595122,
              9.648177986279169
            ],
            [
              106.27009756683167,
              9.647886880165826
            ],
            [
              106.26992058781303,
              9.647509169442184
            ],
            [
              106.26978029943552,
              9.647078846757774
            ],
            [
              106.26970159635543,
              9.646725598928837
            ],
            [
              106.26975440838027,
              9.646510117601043
            ],
            [
              106.26989863254241,
              9.646046488201613
            ],
            [
              106.26984710653085,
              9.645843658426315
            ],
            [
              106.26976069233616,
              9.645705791137017
            ],
            [
              106.26960887802852,
              9.645576116657217
            ],
            [
              106.26938340130698,
              9.64550754485098
            ],
            [
              106.26916630902413,
              9.645520235308458
            ],
            [
              106.2690109198216,
              9.645622115792845
            ],
            [
              106.2687820059118,
              9.645846036792802
            ],
            [
              106.26840242815942,
              9.646448219421552
            ],
            [
              106.26817794545282,
              9.646859013550285
            ],
            [
              106.26804378339183,
              9.647322497709652
            ],
            [
              106.26792286575632,
              9.647720222166576
            ],
            [
              106.26782393304828,
              9.648050510321315
            ],
            [
              106.26763221113893,
              9.648282152997435
            ],
            [
              106.26674464639703,
              9.648873260159853
            ],
            [
              106.26626577755933,
              9.64904493498033
            ],
            [
              106.26608559272596,
              9.649061610136267
            ],
            [
              106.26588472386968,
              9.648997050016792
            ],
            [
              106.26571215285941,
              9.648794366388099
            ],
            [
              106.26560481640374,
              9.64842897528192
            ],
            [
              106.26562460144416,
              9.648112034125921
            ],
            [
              106.26571405169582,
              9.647819349589021
            ],
            [
              106.2659549846179,
              9.647469368110814
            ],
            [
              106.26642934754136,
              9.647118957627072
            ],
            [
              106.26716151848956,
              9.646629821666966
            ],
            [
              106.26729632565008,
              9.646491370578557
            ],
            [
              106.26741873998343,
              9.64627175629985
            ],
            [
              106.2674388450819,
              9.646097033860807
            ],
            [
              106.26737688407295,
              9.645853418793468
            ],
            [
              106.2671919860363,
              9.645638467122646
            ],
            [
              106.26687206102885,
              9.645464501699065
            ],
            [
              106.26631897341575,
              9.645408862622261
            ],
            [
              106.26571678620806,
              9.64539799574191
            ],
            [
              106.26525777183203,
              9.645321893361082
            ],
            [
              106.26455281773559,
              9.64515284922515
            ],
            [
              106.26388440803959,
              9.644865824098051
            ],
            [
              106.26294566144752,
              9.644534913101305
            ],
            [
              106.26240034662399,
              9.644328893581752
            ],
            [
              106.26186328727948,
              9.644147266400473
            ],
            [
              106.26130991028487,
              9.644002201239786
            ],
            [
              106.26094441776215,
              9.64394315513958
            ],
            [
              106.26013395805931,
              9.643854530888401
            ],
            [
              106.2597776927672,
              9.64388786528367
            ],
            [
              106.25911488881282,
              9.644271230735443
            ],
            [
              106.25875891323932,
              9.64443439661263
            ],
            [
              106.25847640216087,
              9.644487910234425
            ],
            [
              106.25809519932209,
              9.644411536389429
            ],
            [
              106.25779582493941,
              9.644257769401511
            ],
            [
              106.25722132385965,
              9.643791867995777
            ],
            [
              106.25672433414618,
              9.643232308166676
            ],
            [
              106.25635036416752,
              9.642721210177575
            ],
            [
              106.2560666869641,
              9.642210004029627
            ],
            [
              106.25582374697015,
              9.641662090925566
            ],
            [
              106.25560563405608,
              9.641215747503436
            ],
            [
              106.2553796116601,
              9.64085874939645
            ],
            [
              106.25508786253685,
              9.640485620716543
            ],
            [
              106.25473071454378,
              9.640120772108723
            ],
            [
              106.25422186875637,
              9.63971565948409
            ],
            [
              106.25349551044854,
              9.639132184220797
            ],
            [
              106.25308926494783,
              9.638812105066927
            ],
            [
              106.2528770474809,
              9.638556608816533
            ],
            [
              106.2522968261099,
              9.63796883332227
            ],
            [
              106.25198045730431,
              9.637542953912936
            ],
            [
              106.25180461509872,
              9.637255552080385
            ],
            [
              106.25122805289989,
              9.636260726078445
            ],
            [
              106.2508578849347,
              9.635607482840374
            ],
            [
              106.2505497918583,
              9.635214042106936
            ],
            [
              106.25010650190504,
              9.63482496369285
            ],
            [
              106.24968819806209,
              9.634610508766349
            ],
            [
              106.24910625018309,
              9.634473621688429
            ],
            [
              106.24858534344575,
              9.634170059822443
            ],
            [
              106.24831829848678,
              9.63379696109484
            ],
            [
              106.24807550268109,
              9.63330582014841
            ],
            [
              106.24797632809208,
              9.632911923560707
            ],
            [
              106.24791326435944,
              9.63220114035405
            ],
            [
              106.24790002563527,
              9.631774598993097
            ],
            [
              106.247437941753,
              9.631619004489844
            ],
            [
              106.24651960282954,
              9.630518401904173
            ],
            [
              106.24432163444706,
              9.628828803030528
            ],
            [
              106.242565459237,
              9.627467614436913
            ],
            [
              106.24054668605146,
              9.625879408440701
            ],
            [
              106.23926163834263,
              9.624882424231032
            ],
            [
              106.24000949467835,
              9.62419593063351
            ],
            [
              106.24439842931939,
              9.620167005417061
            ],
            [
              106.2536962649155,
              9.627808947803802
            ],
            [
              106.25607544306716,
              9.627277567074254
            ],
            [
              106.25808296191649,
              9.627273163757025
            ],
            [
              106.25857234298196,
              9.628096906156774
            ],
            [
              106.27695052238262,
              9.626859726590398
            ],
            [
              106.28546492627783,
              9.628980197673432
            ]
          ]
        ]
      }
    }
  ]
}