{
  "type": "FeatureCollection",
  "name": "Ấp Giồng Lớn",
  "crs": {
    "type": "name",
    "properties": {
      "name": "urn:ogc:def:crs:OGC:1.3:CRS84"
    }
  },
  "features": [
    {
      "type": "Feature",
      "properties": {
        "ten": "Ấp Giồng Lớn",
        "ma": "3006007",
        "loai": "Ấp",
        "dien_tich_ha": "552.19",
        "dien_tich_km2": "5.5219",
        "dan_so": "3764",
        "so_ho": "861",
        "mat_do_km2": "681.65",
        "sap_nhap_tu": [
          "Ấp Giồng Lớn A",
          "Ấp Giồng Lớn B"
        ]
      },
      "geometry": {
        "type": "MultiPolygon",
        "coordinates": [
          [
            [
              [
                106.30281613637555,
                9.639233958696865
              ],
              [
                106.30239471883885,
                9.639142415512602
              ],
              [
                106.30230937730938,
                9.639413883254369
              ],
              [
                106.30222323553531,
                9.639387216094184
              ],
              [
                106.30229909924135,
                9.638996541941463
              ],
              [
                106.30232472740612,
                9.638864560943398
              ],
              [
                106.30220562210837,
                9.638834911670756
              ],
              [
                106.3019181500968,
                9.638765440002778
              ],
              [
                106.30173982965417,
                9.638722347052258
              ],
              [
                106.301679934514,
                9.63870353649256
              ],
              [
                106.30148732392888,
                9.638643047847884
              ],
              [
                106.30124829135177,
                9.63856798076152
              ],
              [
                106.3013526375891,
                9.638115496382426
              ],
              [
                106.30123695583588,
                9.638050035553706
              ],
              [
                106.30130678503936,
                9.637796357435226
              ],
              [
                106.30119335426522,
                9.637773412893369
              ],
              [
                106.30113736354215,
                9.637762087926436
              ],
              [
                106.30106687577873,
                9.637747830778041
              ],
              [
                106.30082601825069,
                9.637699113116339
              ],
              [
                106.30058020991142,
                9.637649394117355
              ],
              [
                106.30031444322873,
                9.637595638120942
              ],
              [
                106.29996160447908,
                9.637524269929758
              ],
              [
                106.2995678279585,
                9.63744462093228
              ],
              [
                106.29924367304494,
                9.637379054073955
              ],
              [
                106.29893044100004,
                9.637315696359167
              ],
              [
                106.29842295154683,
                9.637213045165604
              ],
              [
                106.29799278782336,
                9.637126034351791
              ],
              [
                106.29737096519932,
                9.637000254808541
              ],
              [
                106.29706763526067,
                9.63693889840913
              ],
              [
                106.2968455604426,
                9.636893977952656
              ],
              [
                106.29659873170635,
                9.636844050154535
              ],
              [
                106.2962160342325,
                9.636766638605712
              ],
              [
                106.29585082078894,
                9.636692763326767
              ],
              [
                106.29556964894998,
                9.636397808996797
              ],
              [
                106.29546665840124,
                9.636260506122236
              ],
              [
                106.29535445973724,
                9.63611092974536
              ],
              [
                106.29517079082727,
                9.636064397282501
              ],
              [
                106.29490461349158,
                9.635996962439195
              ],
              [
                106.29448763785105,
                9.635930242606634
              ],
              [
                106.29353878264084,
                9.635778416832942
              ],
              [
                106.2889748439798,
                9.63503566190901
              ],
              [
                106.28812296782013,
                9.634965053577899
              ],
              [
                106.2876917179175,
                9.63484420790734
              ],
              [
                106.28699011882698,
                9.634681620386717
              ],
              [
                106.28611095664692,
                9.634424141307438
              ],
              [
                106.28496015944334,
                9.633850216985357
              ],
              [
                106.28430618933336,
                9.63357959969047
              ],
              [
                106.28407875896484,
                9.633490969917027
              ],
              [
                106.28374765708,
                9.63340682494086
              ],
              [
                106.2835700268261,
                9.633381280067432
              ],
              [
                106.28344420145257,
                9.633379576786135
              ],
              [
                106.28316617869275,
                9.6333958384251
              ],
              [
                106.2829691573976,
                9.633299645670816
              ],
              [
                106.28280396253895,
                9.633174799113196
              ],
              [
                106.2826951547842,
                9.63312495741992
              ],
              [
                106.28255149690418,
                9.633094452638964
              ],
              [
                106.28243112718667,
                9.633048434416038
              ],
              [
                106.28228639420792,
                9.632946686806283
              ],
              [
                106.28213865890115,
                9.632846754188348
              ],
              [
                106.28202018948161,
                9.632795035505712
              ],
              [
                106.28192311685683,
                9.632776901782965
              ],
              [
                106.28178254002314,
                9.632778666993804
              ],
              [
                106.28167011442284,
                9.63281942662248
              ],
              [
                106.28152669384734,
                9.6328919912761
              ],
              [
                106.28144815155024,
                9.632928786328367
              ],
              [
                106.28133085260713,
                9.632950208585573
              ],
              [
                106.28123088902453,
                9.632942749909532
              ],
              [
                106.28116293135727,
                9.632907281219259
              ],
              [
                106.28104726852045,
                9.632847780348985
              ],
              [
                106.28095210614185,
                9.63278868509099
              ],
              [
                106.28083458558824,
                9.63275332852904
              ],
              [
                106.28068037238837,
                9.632768143579296
              ],
              [
                106.28056594901243,
                9.632772199836552
              ],
              [
                106.28044664586642,
                9.632793716740927
              ],
              [
                106.28023027573012,
                9.632799540528891
              ],
              [
                106.27997224807818,
                9.63279632669099
              ],
              [
                106.27984134733056,
                9.63280620637558
              ],
              [
                106.27968127881263,
                9.632810455936752
              ],
              [
                106.27958421517697,
                9.63279620927164
              ],
              [
                106.27957942976923,
                9.632854807506575
              ],
              [
                106.27957574445848,
                9.63299576921182
              ],
              [
                106.27958526204003,
                9.63305388305948
              ],
              [
                106.27962311021143,
                9.633110124625425
              ],
              [
                106.27967874051855,
                9.633212978938962
              ],
              [
                106.27978702925024,
                9.633376585349003
              ],
              [
                106.27978167264597,
                9.633420638220603
              ],
              [
                106.27980656828016,
                9.633531304274447
              ],
              [
                106.27988245877641,
                9.633886996992755
              ],
              [
                106.27989405684363,
                9.633943082945907
              ],
              [
                106.27994653651844,
                9.634018159896959
              ],
              [
                106.27991087174895,
                9.634119383733685
              ],
              [
                106.27988646544674,
                9.634203522704075
              ],
              [
                106.27988836962011,
                9.63423923140433
              ],
              [
                106.27994040500664,
                9.634284139255003
              ],
              [
                106.28004059775752,
                9.634351541357745
              ],
              [
                106.28013601535422,
                9.634408829974225
              ],
              [
                106.28024176714325,
                9.634549903795472
              ],
              [
                106.28036657166575,
                9.634720553060939
              ],
              [
                106.28038642574009,
                9.634817469235253
              ],
              [
                106.28042046854856,
                9.634922451715896
              ],
              [
                106.28047923598476,
                9.63504220591656
              ],
              [
                106.28050753077478,
                9.635103984141733
              ],
              [
                106.28055113718169,
                9.635128387284325
              ],
              [
                106.28061724730986,
                9.635152649074232
              ],
              [
                106.28068431849671,
                9.635159006970254
              ],
              [
                106.28068448431029,
                9.635274906955186
              ],
              [
                106.28064008913582,
                9.635299608345948
              ],
              [
                106.28064834712792,
                9.635413861782702
              ],
              [
                106.28060828415353,
                9.635494429187128
              ],
              [
                106.2805987952111,
                9.635528174583717
              ],
              [
                106.2805884503628,
                9.635625572423955
              ],
              [
                106.28063351180815,
                9.635661882311142
              ],
              [
                106.28036563988229,
                9.635763503900815
              ],
              [
                106.28036338426824,
                9.635812783901777
              ],
              [
                106.28039897678309,
                9.635878433360457
              ],
              [
                106.28053427087028,
                9.63603535477329
              ],
              [
                106.28054392993114,
                9.636115257693762
              ],
              [
                106.2805632690603,
                9.636284195161693
              ],
              [
                106.28054480398283,
                9.636495531315573
              ],
              [
                106.28039848037754,
                9.636693233301092
              ],
              [
                106.28005867538761,
                9.637144709235457
              ],
              [
                106.2797281078188,
                9.637492912747039
              ],
              [
                106.27902888694717,
                9.638189495422894
              ],
              [
                106.278447839415,
                9.638749558157727
              ],
              [
                106.27786678996117,
                9.639309620046328
              ],
              [
                106.27768636798493,
                9.639657573477589
              ],
              [
                106.27736654617014,
                9.64000556998053
              ],
              [
                106.27746220442666,
                9.640399824825787
              ],
              [
                106.27765241397172,
                9.640784372986056
              ],
              [
                106.27754922110124,
                9.641197791754113
              ],
              [
                106.2774273136833,
                9.641714594412509
              ],
              [
                106.27719224173215,
                9.642428661494769
              ],
              [
                106.27706975275377,
                9.642691857792753
              ],
              [
                106.27725227829293,
                9.643818349832518
              ],
              [
                106.27737659625197,
                9.644353402840297
              ],
              [
                106.27747326207097,
                9.645226390289169
              ],
              [
                106.2775876836495,
                9.645601613539089
              ],
              [
                106.27758765137031,
                9.645601870677194
              ],
              [
                106.27758786648194,
                9.64560184868371
              ],
              [
                106.27781518762467,
                9.645695131481004
              ],
              [
                106.27858249072638,
                9.64583426122685
              ],
              [
                106.2793589249674,
                9.645823193189765
              ],
              [
                106.27958626584842,
                9.645869602985307
              ],
              [
                106.27991842184078,
                9.646169382737789
              ],
              [
                106.28025959570552,
                9.646309473038558
              ],
              [
                106.28069524523657,
                9.646327201479174
              ],
              [
                106.28102666716546,
                9.646307554039812
              ],
              [
                106.2811877439446,
                9.646382321682518
              ],
              [
                106.28121686299404,
                9.646682787076129
              ],
              [
                106.28103824014255,
                9.647218434597667
              ],
              [
                106.28102943481936,
                9.647509583076996
              ],
              [
                106.28113409506138,
                9.647734653902948
              ],
              [
                106.28134244290679,
                9.647762390085493
              ],
              [
                106.2816738446826,
                9.647733429471533
              ],
              [
                106.28193911168707,
                9.647789244837206
              ],
              [
                106.28212933530108,
                9.648136178003927
              ],
              [
                106.28214926123367,
                9.648558721036059
              ],
              [
                106.28216910072149,
                9.648943743040881
              ],
              [
                106.28221673478251,
                9.649093900517288
              ],
              [
                106.28236838515686,
                9.649149883073935
              ],
              [
                106.28287382243501,
                9.648808692983815
              ],
              [
                106.28313548863996,
                9.64872518981792
              ],
              [
                106.28337627960656,
                9.648834493450929
              ],
              [
                106.28361556472468,
                9.649120104744544
              ],
              [
                106.28383764812672,
                9.64953188044414
              ],
              [
                106.28422616959385,
                9.649735147390317
              ],
              [
                106.28475029643872,
                9.649911252367673
              ],
              [
                106.28521971871973,
                9.649913979686694
              ],
              [
                106.28548785209162,
                9.650065622825773
              ],
              [
                106.28565577769143,
                9.650539091530334
              ],
              [
                106.28579967541239,
                9.650669770863642
              ],
              [
                106.28593468384341,
                9.650345876540726
              ],
              [
                106.28610458087097,
                9.649979408682512
              ],
              [
                106.28635634349361,
                9.64979005268139
              ],
              [
                106.28655359072847,
                9.649548743451907
              ],
              [
                106.2867545385213,
                9.64917460977755
              ],
              [
                106.28686250999637,
                9.648900775026927
              ],
              [
                106.28694365181923,
                9.648765784670235
              ],
              [
                106.28712961741391,
                9.648649722195335
              ],
              [
                106.28728108935358,
                9.648707149549463
              ],
              [
                106.2874170948851,
                9.648774376736567
              ],
              [
                106.28781296639553,
                9.648846615122977
              ],
              [
                106.28816989164692,
                9.648822743345669
              ],
              [
                106.28854213389559,
                9.648764027352561
              ],
              [
                106.28870873691694,
                9.648667356653728
              ],
              [
                106.288940776287,
                9.648343148777917
              ],
              [
                106.28919605055717,
                9.647980462264258
              ],
              [
                106.28931617523654,
                9.647918525751095
              ],
              [
                106.28939773710249,
                9.647964539579982
              ],
              [
                106.28947550826142,
                9.64802602259741
              ],
              [
                106.28959234756749,
                9.648235782790318
              ],
              [
                106.28967414278873,
                9.648381972947915
              ],
              [
                106.28977927190905,
                9.648531997308256
              ],
              [
                106.28984535392907,
                9.64858193424155
              ],
              [
                106.28989196627303,
                9.64860497291886
              ],
              [
                106.29014781245486,
                9.648527264308871
              ],
              [
                106.29033006690065,
                9.648461387586487
              ],
              [
                106.29036881662243,
                9.64847287145444
              ],
              [
                106.29039238369673,
                9.648576791615268
              ],
              [
                106.29044373880795,
                9.648992841952897
              ],
              [
                106.29045987580767,
                9.649231674423602
              ],
              [
                106.29054162676874,
                9.649358606584684
              ],
              [
                106.29057663966071,
                9.64940861466972
              ],
              [
                106.29064668803152,
                9.649518304898379
              ],
              [
                106.29073615803182,
                9.64959513082548
              ],
              [
                106.29093032560057,
                9.649675604023077
              ],
              [
                106.29139607780728,
                9.649745869401828
              ],
              [
                106.29183467857546,
                9.649816196565052
              ],
              [
                106.29222667920531,
                9.649907786846041
              ],
              [
                106.29253710905806,
                9.649910869899463
              ],
              [
                106.29283196792397,
                9.649917966662722
              ],
              [
                106.29305711523226,
                9.649959761221801
              ],
              [
                106.2932394588157,
                9.649970914038141
              ],
              [
                106.29344507309747,
                9.649958867590048
              ],
              [
                106.29371264494243,
                9.649908162585294
              ],
              [
                106.2938869012281,
                9.649772956177266
              ],
              [
                106.29419686162575,
                9.649575685170213
              ],
              [
                106.29464268690151,
                9.649462907180393
              ],
              [
                106.29485231798493,
                9.649493254013585
              ],
              [
                106.29538786698124,
                9.649565251510227
              ],
              [
                106.29580683032252,
                9.64953734078778
              ],
              [
                106.29669906864076,
                9.649485189507518
              ],
              [
                106.29723045976382,
                9.649455027899535
              ],
              [
                106.2975407435461,
                9.649435051689698
              ],
              [
                106.29784738177689,
                9.649492114863488
              ],
              [
                106.29793677128399,
                9.64957282670491
              ],
              [
                106.29805362113987,
                9.649745966586194
              ],
              [
                106.29816643492632,
                9.649907543007622
              ],
              [
                106.29829467520973,
                9.649965019166547
              ],
              [
                106.29865941657785,
                9.650010374112814
              ],
              [
                106.29898354906254,
                9.65006739564498
              ],
              [
                106.2994532427225,
                9.650185740089007
              ],
              [
                106.29976751743193,
                9.650196583119593
              ],
              [
                106.29989931221493,
                9.650138503632238
              ],
              [
                106.29999862981812,
                9.650178958404666
              ],
              [
                106.30001419649754,
                9.650184467868955
              ],
              [
                106.30181985938523,
                9.643127667475513
              ],
              [
                106.30281613637555,
                9.639233958696865
              ]
            ]
          ]
        ]
      }
    }
  ]
}