{
"type": "FeatureCollection",
"name": "Ấp Mé Láng",
"crs": { "type": "name", "properties": { "name": "urn:ogc:def:crs:OGC:1.3:CRS84" } },
"features": [
{ "type": "Feature", "properties": { "ten": "Ấp Mé Láng", "ma": "3006005", "loai": "Ấp", "dien_tich_ha": "359.47", "dien_tich_km2": "3.5947", "dan_so": "3525", "so_ho": "816", "mat_do_km2": "980.61", "sap_nhap_tu": [ "Ấp Mé Láng", "Ấp Làng Cá", "Ấp Bến Chùa" ], "center": [ 9.6180873500004136, 106.29890827408666 ] }, "geometry": { "type": "Polygon", "coordinates": [ [ [ 106.286218688351696, 9.610739221521765 ], [ 106.286167539096326, 9.612280218555798 ], [ 106.28614996016411, 9.613032158699928 ], [ 106.285966753217977, 9.621409875877337 ], [ 106.286196846553551, 9.621432072771087 ], [ 106.286196931389171, 9.6214293601997 ], [ 106.286521898238945, 9.621465689442974 ], [ 106.286637723897115, 9.621478806707048 ], [ 106.287762162908237, 9.621589905140334 ], [ 106.288205432330443, 9.621619711602927 ], [ 106.2881823691297, 9.621653216889174 ], [ 106.288154057857625, 9.621702285112733 ], [ 106.28813989240318, 9.62176189932222 ], [ 106.288148807131776, 9.621795331626988 ], [ 106.288175383921796, 9.621823389280809 ], [ 106.288270032953449, 9.621897763618389 ], [ 106.288454066243204, 9.621897614740096 ], [ 106.288493002916837, 9.621873204863517 ], [ 106.288659410401266, 9.621894071832479 ], [ 106.288818620373519, 9.621914864747351 ], [ 106.288992108431003, 9.62196392409464 ], [ 106.289045195608892, 9.622030617676334 ], [ 106.289199085252434, 9.622035781194821 ], [ 106.289535321710588, 9.622059966496298 ], [ 106.290132323887789, 9.622094664457576 ], [ 106.290159715366173, 9.622201629186195 ], [ 106.290347543096928, 9.622222568964053 ], [ 106.290517355636041, 9.622218835017755 ], [ 106.290581048021608, 9.622183699568035 ], [ 106.290628324949054, 9.622180698132476 ], [ 106.290722837571707, 9.62216982054186 ], [ 106.290890631827025, 9.622186426368975 ], [ 106.290926988938836, 9.622188965064185 ], [ 106.290986292810729, 9.62218638809656 ], [ 106.291105289786799, 9.622191901914702 ], [ 106.291194125021391, 9.62219495324625 ], [ 106.291272956305932, 9.622202101110709 ], [ 106.291307970016859, 9.622218109235005 ], [ 106.291340699118251, 9.622227617961817 ], [ 106.29139548664439, 9.622241777584907 ], [ 106.291443333339288, 9.622248720106528 ], [ 106.291525135169806, 9.622243921583781 ], [ 106.291638359064166, 9.622235072861914 ], [ 106.291737468833773, 9.622232755204621 ], [ 106.291854297134165, 9.622242534078797 ], [ 106.291907888940443, 9.622251814086242 ], [ 106.291968037172197, 9.622259722861733 ], [ 106.292043932304068, 9.622261447461328 ], [ 106.292058780993017, 9.622260780517095 ], [ 106.292082638426351, 9.622261116045541 ], [ 106.292170158622156, 9.622280687025025 ], [ 106.292173487270617, 9.622301655084815 ], [ 106.292647669742848, 9.622487178344379 ], [ 106.292644189472654, 9.622557527234378 ], [ 106.293068963939447, 9.622613330980489 ], [ 106.293072380525217, 9.622750117186001 ], [ 106.293198209946922, 9.622755343335278 ], [ 106.293256124981369, 9.622118254534605 ], [ 106.294158738355748, 9.622208762346364 ], [ 106.294209769742764, 9.622213979320414 ], [ 106.294652201813989, 9.622262688353334 ], [ 106.294775799502631, 9.622248661228525 ], [ 106.294921055284533, 9.622223915540186 ], [ 106.295143932678812, 9.622198991074594 ], [ 106.295152438648387, 9.622018327474464 ], [ 106.29517001306607, 9.622014489686972 ], [ 106.295597521442104, 9.621915045939373 ], [ 106.295601056937969, 9.621868565814809 ], [ 106.295741680072368, 9.621849797689629 ], [ 106.295729279900812, 9.621884544626765 ], [ 106.295722400510783, 9.622137263159408 ], [ 106.296281293420535, 9.622184749894801 ], [ 106.296301207999591, 9.622026168339726 ], [ 106.296765122376115, 9.622075749057585 ], [ 106.296779445283249, 9.622075244141101 ], [ 106.296774088806487, 9.622277689831217 ], [ 106.296770580713442, 9.62238987559163 ], [ 106.297168558656367, 9.622386720905844 ], [ 106.297286990981405, 9.622384548831576 ], [ 106.297391848413696, 9.622382317650308 ], [ 106.297430645664363, 9.62237644167015 ], [ 106.297457758975341, 9.622361008956098 ], [ 106.297503674739673, 9.622325358280829 ], [ 106.297576118766756, 9.622327915921113 ], [ 106.29763824805211, 9.622325873761499 ], [ 106.297778116992646, 9.622335134376172 ], [ 106.297861574008806, 9.62233693063607 ], [ 106.297926610595027, 9.622331446037711 ], [ 106.297968293916881, 9.62231308642399 ], [ 106.298002205927972, 9.622283081569496 ], [ 106.298018566977902, 9.622228073047037 ], [ 106.29802811184625, 9.622133388467743 ], [ 106.298151535250796, 9.622130843702919 ], [ 106.298455951630046, 9.622144696381165 ], [ 106.298545173604737, 9.622112068467437 ], [ 106.298827429872119, 9.622162010162221 ], [ 106.298991970382133, 9.622163618580386 ], [ 106.299911919209691, 9.622187256407658 ], [ 106.299930362028178, 9.622281513736448 ], [ 106.300263111490196, 9.622333724404941 ], [ 106.300243032303996, 9.622395884194157 ], [ 106.300236147786791, 9.622644986066165 ], [ 106.300666019839483, 9.622776081991978 ], [ 106.300659303260602, 9.623200829081993 ], [ 106.301015180114575, 9.623258525935574 ], [ 106.301673492840095, 9.623366758669611 ], [ 106.302007879511152, 9.623455942365455 ], [ 106.302291069145866, 9.62354696251853 ], [ 106.302464443161725, 9.623623952526493 ], [ 106.302928154862954, 9.623809485400288 ], [ 106.302922866742747, 9.623846385894902 ], [ 106.302916067295115, 9.623976324107252 ], [ 106.302940690548397, 9.623986754666765 ], [ 106.303199125019248, 9.624049803791138 ], [ 106.303257975129597, 9.624047949050951 ], [ 106.303312180090032, 9.624065790916045 ], [ 106.303317622409864, 9.624084432685228 ], [ 106.303377479301545, 9.624190793580096 ], [ 106.303430755231332, 9.624220415236897 ], [ 106.303496318671478, 9.624245035616521 ], [ 106.303745787539128, 9.62436931425051 ], [ 106.303764396069866, 9.624301913820254 ], [ 106.304104221725595, 9.624417483070953 ], [ 106.304061633353953, 9.624630955098194 ], [ 106.304314346771065, 9.624701611280084 ], [ 106.3044347307343, 9.624715435108673 ], [ 106.304495040497372, 9.624703380733802 ], [ 106.304647016195375, 9.624757343737906 ], [ 106.30473535623284, 9.624781910781065 ], [ 106.304827456161902, 9.6247783508403 ], [ 106.304864871276223, 9.624765877145144 ], [ 106.304893316937466, 9.624736065214469 ], [ 106.304970460402075, 9.62476463643646 ], [ 106.30505722691916, 9.624817234845606 ], [ 106.305230873405165, 9.624931834195189 ], [ 106.305327467765096, 9.625017952529959 ], [ 106.305313128033561, 9.625156587869679 ], [ 106.305252503213595, 9.62525545939646 ], [ 106.305199480073441, 9.625332704670727 ], [ 106.30519240723099, 9.625423766245421 ], [ 106.305217429563967, 9.62552569283511 ], [ 106.305289366741803, 9.625625520917241 ], [ 106.305369487084334, 9.625679942971406 ], [ 106.305517968140322, 9.625760605499224 ], [ 106.305566706633499, 9.62583237730543 ], [ 106.305529124780278, 9.625957226321672 ], [ 106.305522085661281, 9.626062482527892 ], [ 106.305546808969041, 9.626115044725168 ], [ 106.305596396306171, 9.626164203644182 ], [ 106.305640313870612, 9.626204424981612 ], [ 106.305755675889642, 9.626328653289722 ], [ 106.305832767039959, 9.626373408183325 ], [ 106.305852164687835, 9.626408442823099 ], [ 106.305875450967903, 9.626431262739642 ], [ 106.305949607683345, 9.626467977771293 ], [ 106.305993827587287, 9.626481978821346 ], [ 106.306034556953179, 9.626522388369549 ], [ 106.306103616262575, 9.626561013923371 ], [ 106.306371725426615, 9.626668791887919 ], [ 106.306067058534495, 9.627472996400948 ], [ 106.305889975788276, 9.627946355955897 ], [ 106.30669175938732, 9.628079196963379 ], [ 106.308208252880405, 9.628316326105017 ], [ 106.308691227625516, 9.628399730053777 ], [ 106.310462008292902, 9.628677209767483 ], [ 106.310490276805382, 9.62861141380947 ], [ 106.310574767358133, 9.628320178942916 ], [ 106.310564822018932, 9.628123013587823 ], [ 106.310602296876354, 9.627944542568933 ], [ 106.310668128203474, 9.627775407799577 ], [ 106.310838317852742, 9.627699875592914 ], [ 106.310960932041269, 9.627502398814746 ], [ 106.31115815784149, 9.626844820525788 ], [ 106.311383673368027, 9.626130758542683 ], [ 106.311505770939121, 9.625717198022109 ], [ 106.311590148074629, 9.625379039395188 ], [ 106.311684224097093, 9.62513470566673 ], [ 106.311872869074477, 9.624852628540884 ], [ 106.311910074012772, 9.624561504645541 ], [ 106.311956864628016, 9.624354893475372 ], [ 106.312012952020083, 9.624035516603955 ], [ 106.312173148882309, 9.623744103415302 ], [ 106.312276743977037, 9.623518552888896 ], [ 106.312304630593303, 9.623293180451258 ], [ 106.312370505047085, 9.623142760645823 ], [ 106.312483911102817, 9.623057958556197 ], [ 106.312681961879278, 9.622747650410609 ], [ 106.312785578847581, 9.622531502571498 ], [ 106.312880079732196, 9.62246555057501 ], [ 106.313135473156763, 9.622361698744895 ], [ 106.313276853245469, 9.622126656162106 ], [ 106.313711547785246, 9.621796984441385 ], [ 106.313786694196509, 9.621562097743627 ], [ 106.314022618855105, 9.621279908275705 ], [ 106.314126346881039, 9.621110683699778 ], [ 106.314324035577755, 9.620650201272435 ], [ 106.314398799321168, 9.620255738161545 ], [ 106.314303962146241, 9.6201808293658 ], [ 106.313545917680869, 9.619853967882923 ], [ 106.31365101051378, 9.619629852004506 ], [ 106.313943177189827, 9.618805789360971 ], [ 106.313968897761882, 9.61874180744517 ], [ 106.31410821052296, 9.618366992499226 ], [ 106.314270955494678, 9.617923861197577 ], [ 106.314491652478523, 9.617317913944337 ], [ 106.314491867102177, 9.617317962055242 ], [ 106.314524911478642, 9.617267625146132 ], [ 106.314643502171521, 9.616926951302583 ], [ 106.314717692010035, 9.616106648794384 ], [ 106.298526923622802, 9.613047810538774 ], [ 106.286218688351696, 9.610739221521765 ] ] ] } }
]
}
