{
  "type": "FeatureCollection",
  "name": "Ấp Giồng Đình",
  "crs": {
    "type": "name",
    "properties": {
      "name": "urn:ogc:def:crs:OGC:1.3:CRS84"
    }
  },
  "features": [
    {
      "type": "Feature",
      "properties": {
        "ten": "Ấp Giồng Đình",
        "ma": "3006003",
        "loai": "Ấp",
        "dien_tich_ha": "372.35",
        "dien_tich_km2": "3.7235",
        "dan_so": "3197",
        "so_ho": "725",
        "mat_do_km2": "858.60",
        "sap_nhap_tu": [
          "Ấp Giồng Đình",
          "Ấp Xà Lôn"
        ]
      },
      "geometry": {
        "type": "Polygon",
        "coordinates": [
          [
            [
              106.30462932489912,
              9.632509015931852
            ],
            [
              106.30459172440472,
              9.632633858554406
            ],
            [
              106.30446468899589,
              9.633082689594458
            ],
            [
              106.30440587781796,
              9.633248514825857
            ],
            [
              106.30526047799536,
              9.633448900715214
            ],
            [
              106.30551022559915,
              9.633495422327998
            ],
            [
              106.30609914034578,
              9.633625325013792
            ],
            [
              106.30680660318431,
              9.633876824924679
            ],
            [
              106.30805435623307,
              9.634189273814822
            ],
            [
              106.30866523888962,
              9.634277023674285
            ],
            [
              106.3094486274364,
              9.634394505084574
            ],
            [
              106.30999965328444,
              9.634461644363967
            ],
            [
              106.31044290026614,
              9.634518399037598
            ],
            [
              106.31089278573342,
              9.634556539768496
            ],
            [
              106.31149847964299,
              9.6345331993521
            ],
            [
              106.31200242181285,
              9.634505445744898
            ],
            [
              106.31204110963047,
              9.63435430333067
            ],
            [
              106.31198332765058,
              9.634346302283125
            ],
            [
              106.31198295460432,
              9.634190252042782
            ],
            [
              106.312056795247,
              9.634017572103408
            ],
            [
              106.31207312886878,
              9.633951894534492
            ],
            [
              106.31206478535769,
              9.633910821922004
            ],
            [
              106.31203578282691,
              9.633841092133553
            ],
            [
              106.31201512380838,
              9.633812434956477
            ],
            [
              106.31207279162422,
              9.63379177566956
            ],
            [
              106.31213045943231,
              9.633771116373545
            ],
            [
              106.31216311916171,
              9.633598533374762
            ],
            [
              106.31216258912906,
              9.633376844389025
            ],
            [
              106.31221043100118,
              9.632695115636984
            ],
            [
              106.31320881521839,
              9.632742038102108
            ],
            [
              106.31394326793018,
              9.632830627529039
            ],
            [
              106.31389488592679,
              9.633323486914172
            ],
            [
              106.3148354661294,
              9.633352458494427
            ],
            [
              106.31509957514446,
              9.63338465405212
            ],
            [
              106.31547102420964,
              9.633498780110632
            ],
            [
              106.31575981610278,
              9.633489869780412
            ],
            [
              106.31905184204771,
              9.634224916506055
            ],
            [
              106.31907151318036,
              9.634187829652817
            ],
            [
              106.31916315723268,
              9.633918817581309
            ],
            [
              106.31919594049306,
              9.633836736174077
            ],
            [
              106.31921716460963,
              9.633759474045835
            ],
            [
              106.31924509580247,
              9.633667730090833
            ],
            [
              106.31927112309663,
              9.633579878365904
            ],
            [
              106.31930877705494,
              9.633477442716188
            ],
            [
              106.31935133837612,
              9.633369841931726
            ],
            [
              106.31940350212382,
              9.633239434547583
            ],
            [
              106.31941989250046,
              9.63319789657403
            ],
            [
              106.31944592648338,
              9.633112847591594
            ],
            [
              106.31945838068609,
              9.633063633959878
            ],
            [
              106.31946803257918,
              9.633023558581767
            ],
            [
              106.31949509685816,
              9.632950170278004
            ],
            [
              106.319533685106,
              9.632857406459618
            ],
            [
              106.31956651502276,
              9.632756971311426
            ],
            [
              106.31961482839165,
              9.632654510313897
            ],
            [
              106.3196689963114,
              9.632524098139719
            ],
            [
              106.31968834888896,
              9.632464199513711
            ],
            [
              106.31969202182748,
              9.63240054084523
            ],
            [
              106.31970351582025,
              9.632330986823195
            ],
            [
              106.31971503336916,
              9.632271197224586
            ],
            [
              106.31979237531691,
              9.632116590009385
            ],
            [
              106.31987272155673,
              9.631961071523117
            ],
            [
              106.3199521096239,
              9.631823818492853
            ],
            [
              106.32002371827456,
              9.631709729371304
            ],
            [
              106.32007624272002,
              9.631728952659483
            ],
            [
              106.32008394449528,
              9.631711394454578
            ],
            [
              106.32016585328249,
              9.63148616466986
            ],
            [
              106.32021045240722,
              9.631354871062253
            ],
            [
              106.32034112655559,
              9.630988211605898
            ],
            [
              106.32045321566207,
              9.630659750104837
            ],
            [
              106.32057287807642,
              9.630298360658799
            ],
            [
              106.32069070393823,
              9.62993109878283
            ],
            [
              106.32073635995165,
              9.629784884661415
            ],
            [
              106.32079487799744,
              9.629569836533022
            ],
            [
              106.32089322319388,
              9.629247193983149
            ],
            [
              106.32100912165544,
              9.62887433108479
            ],
            [
              106.32112309202641,
              9.628495415154521
            ],
            [
              106.32123506547427,
              9.628157370101185
            ],
            [
              106.32130016820797,
              9.627952884432352
            ],
            [
              106.32134889099828,
              9.6277940957132
            ],
            [
              106.32143552215892,
              9.627525547213983
            ],
            [
              106.32156014650742,
              9.62710700544657
            ],
            [
              106.3215996468684,
              9.626977441677692
            ],
            [
              106.32166738513698,
              9.6267327164222
            ],
            [
              106.32175870110407,
              9.626442548287981
            ],
            [
              106.32186680958489,
              9.626089051873405
            ],
            [
              106.3219729133284,
              9.62573546979772
            ],
            [
              106.3220788670236,
              9.625395269008838
            ],
            [
              106.32217915866363,
              9.625049566560563
            ],
            [
              106.32228338813373,
              9.624674651692288
            ],
            [
              106.32237965364655,
              9.624284204937616
            ],
            [
              106.32241546441708,
              9.624136115469103
            ],
            [
              106.32242533254284,
              9.624056681872386
            ],
            [
              106.3224805142918,
              9.62402330737423
            ],
            [
              106.32250960733792,
              9.623998193992252
            ],
            [
              106.32253838957178,
              9.623919919192218
            ],
            [
              106.32261980512824,
              9.623831031223595
            ],
            [
              106.32268155574565,
              9.623672572985951
            ],
            [
              106.32272779069098,
              9.623502669408294
            ],
            [
              106.32272344379089,
              9.623325201344885
            ],
            [
              106.32274620622493,
              9.623093512000667
            ],
            [
              106.32280404649443,
              9.62290043533619
            ],
            [
              106.32289677750366,
              9.622668669670292
            ],
            [
              106.32302090174713,
              9.622571814026331
            ],
            [
              106.32321506475834,
              9.62250390399208
            ],
            [
              106.32308207572775,
              9.622137601040391
            ],
            [
              106.32288688125564,
              9.621779131239933
            ],
            [
              106.32300702251295,
              9.62165534238671
            ],
            [
              106.3231311185879,
              9.621547004494833
            ],
            [
              106.32322019308555,
              9.62142328962283
            ],
            [
              106.3233209288746,
              9.621299546932832
            ],
            [
              106.32342253689383,
              9.621159799245827
            ],
            [
              106.3234632569366,
              9.621045331200648
            ],
            [
              106.32355585180203,
              9.620757691227878
            ],
            [
              106.32365036869118,
              9.620473753539716
            ],
            [
              106.3237467519912,
              9.620170553664318
            ],
            [
              106.32383135908543,
              9.619857617380998
            ],
            [
              106.32390245549685,
              9.619608724880793
            ],
            [
              106.32391301653813,
              9.61960580651208
            ],
            [
              106.32399673642362,
              9.61934042893696
            ],
            [
              106.3240699650315,
              9.619106810925533
            ],
            [
              106.3240854036073,
              9.619048910529347
            ],
            [
              106.32414090456574,
              9.618830885632098
            ],
            [
              106.32416429936843,
              9.618823054401494
            ],
            [
              106.32418972406577,
              9.61878818519186
            ],
            [
              106.32421800997385,
              9.618730977434385
            ],
            [
              106.32422464453595,
              9.61868675022448
            ],
            [
              106.32424057451125,
              9.618643676189873
            ],
            [
              106.32452052363304,
              9.617886080401831
            ],
            [
              106.3196191278725,
              9.61699633630997
            ],
            [
              106.31471775207405,
              9.61610652050557
            ],
            [
              106.31464355312536,
              9.616926823035257
            ],
            [
              106.31452493164394,
              9.617267594428045
            ],
            [
              106.31449134563914,
              9.617318756406238
            ],
            [
              106.31427095549468,
              9.617923861197577
            ],
            [
              106.31410821052296,
              9.618366992499226
            ],
            [
              106.31396889776188,
              9.61874180744517
            ],
            [
              106.31394317718983,
              9.618805789360971
            ],
            [
              106.31365142469653,
              9.619628683795503
            ],
            [
              106.31365151601688,
              9.619628773992444
            ],
            [
              106.31354591768087,
              9.619853967882923
            ],
            [
              106.31430396214624,
              9.6201808293658
            ],
            [
              106.31439879932117,
              9.620255738161545
            ],
            [
              106.31432403557776,
              9.620650201272435
            ],
            [
              106.31412634688104,
              9.621110683699778
            ],
            [
              106.3140226188551,
              9.621279908275705
            ],
            [
              106.31378669419651,
              9.621562097743627
            ],
            [
              106.31371154778525,
              9.621796984441385
            ],
            [
              106.31327685324547,
              9.622126656162106
            ],
            [
              106.31313547315676,
              9.622361698744895
            ],
            [
              106.3128800797322,
              9.62246555057501
            ],
            [
              106.31278557884758,
              9.622531502571498
            ],
            [
              106.31268196187928,
              9.62274765041061
            ],
            [
              106.31248391110282,
              9.623057958556197
            ],
            [
              106.31237050504708,
              9.623142760645823
            ],
            [
              106.3123046305933,
              9.623293180451258
            ],
            [
              106.31227674397704,
              9.623518552888896
            ],
            [
              106.31217314888231,
              9.623744103415302
            ],
            [
              106.31201295202008,
              9.624035516603955
            ],
            [
              106.31195686462802,
              9.624354893475372
            ],
            [
              106.31191007401277,
              9.624561504645541
            ],
            [
              106.31187286907448,
              9.624852628540884
            ],
            [
              106.31168422409709,
              9.62513470566673
            ],
            [
              106.31159014807463,
              9.625379039395188
            ],
            [
              106.31150577093912,
              9.625717198022109
            ],
            [
              106.31138367336803,
              9.626130758542683
            ],
            [
              106.31115815784149,
              9.626844820525788
            ],
            [
              106.31096093204127,
              9.627502398814746
            ],
            [
              106.31083831785274,
              9.627699875592914
            ],
            [
              106.31066812820347,
              9.627775407799577
            ],
            [
              106.31060229687635,
              9.627944542568933
            ],
            [
              106.31056482201893,
              9.628123013587823
            ],
            [
              106.31057476735813,
              9.628320178942916
            ],
            [
              106.31049027680538,
              9.62861141380947
            ],
            [
              106.3104620082929,
              9.628677209767483
            ],
            [
              106.30869122762552,
              9.628399730053777
            ],
            [
              106.3082082528804,
              9.628316326105017
            ],
            [
              106.30669175938732,
              9.628079196963379
            ],
            [
              106.305889976035,
              9.627946355996775
            ],
            [
              106.30588997609509,
              9.627946355779313
            ],
            [
              106.3060670588409,
              9.627472996224606
            ],
            [
              106.30637172573228,
              9.626668791712001
            ],
            [
              106.30610361656842,
              9.626561013747342
            ],
            [
              106.30603455725908,
              9.626522388193491
            ],
            [
              106.3059938278932,
              9.626481978645282
            ],
            [
              106.3059496079893,
              9.62646797759521
            ],
            [
              106.30586077721942,
              9.626423997427938
            ],
            [
              106.30583276734596,
              9.626373408007197
            ],
            [
              106.3057556761957,
              9.626328653113571
            ],
            [
              106.3056403141767,
              9.626204424805437
            ],
            [
              106.30554680927519,
              9.626115044548976
            ],
            [
              106.3055220859674,
              9.626062482351701
            ],
            [
              106.30552912508635,
              9.625957226145527
            ],
            [
              106.30556670693946,
              9.625832377129338
            ],
            [
              106.3055179684463,
              9.625760605323132
            ],
            [
              106.3052893670479,
              9.62562552074106
            ],
            [
              106.30521742987008,
              9.625525692658927
            ],
            [
              106.30519240753708,
              9.625423766069257
            ],
            [
              106.30519948037949,
              9.625332704494603
            ],
            [
              106.30531312833939,
              9.62515658769366
            ],
            [
              106.30532746807081,
              9.625017952353996
            ],
            [
              106.30523087371094,
              9.624931834019204
            ],
            [
              106.304970460708,
              9.62476463626038
            ],
            [
              106.30489331724345,
              9.624736065038366
            ],
            [
              106.30485394655015,
              9.62477732673782
            ],
            [
              106.304735356539,
              9.624781910604854
            ],
            [
              106.30449504080372,
              9.624703380557493
            ],
            [
              106.30443473104071,
              9.624715434932329
            ],
            [
              106.30431434707758,
              9.624701611103678
            ],
            [
              106.30406163366065,
              9.62463095492167
            ],
            [
              106.30410422203215,
              9.624417482894517
            ],
            [
              106.30376439637669,
              9.624301913643679
            ],
            [
              106.303745787846,
              9.624369314073903
            ],
            [
              106.30337747960866,
              9.624190793403343
            ],
            [
              106.3033249012449,
              9.62410936390188
            ],
            [
              106.30331218039716,
              9.6240657907393
            ],
            [
              106.30325797543675,
              9.624047948874184
            ],
            [
              106.30319912532646,
              9.62404980361433
            ],
            [
              106.30291606760254,
              9.623976323930322
            ],
            [
              106.30292815517028,
              9.623809485223415
            ],
            [
              106.30167349314834,
              9.6233667584922
            ],
            [
              106.3006593035697,
              9.623200828904093
            ],
            [
              106.30066602014836,
              9.62277608181421
            ],
            [
              106.300236148096,
              9.622644985888206
            ],
            [
              106.30026311179923,
              9.6223337242271
            ],
            [
              106.29993036233749,
              9.622281513558443
            ],
            [
              106.29991191951895,
              9.622187256229674
            ],
            [
              106.29882743018237,
              9.622162009983654
            ],
            [
              106.29859036598802,
              9.62212006447412
            ],
            [
              106.29854517391524,
              9.622112068288743
            ],
            [
              106.29845595194064,
              9.622144696202412
            ],
            [
              106.29815153556167,
              9.622130843524
            ],
            [
              106.29802809384576,
              9.622133569937699
            ],
            [
              106.29801856728896,
              9.622228072868019
            ],
            [
              106.29799704893153,
              9.622300421097549
            ],
            [
              106.29792661090622,
              9.622331445858606
            ],
            [
              106.29786157432007,
              9.622336930456932
            ],
            [
              106.29750367505127,
              9.622325358101502
            ],
            [
              106.29742142841891,
              9.622381688061441
            ],
            [
              106.29677052937814,
              9.622391527057362
            ],
            [
              106.29677944559538,
              9.62207524396146
            ],
            [
              106.29630120831214,
              9.622026168159845
            ],
            [
              106.2962812937332,
              9.622184749714863
            ],
            [
              106.29572240082395,
              9.622137262979182
            ],
            [
              106.2957292802138,
              9.621884544446617
            ],
            [
              106.29574168038536,
              9.621849797509503
            ],
            [
              106.2956010572511,
              9.621868565634598
            ],
            [
              106.29559752175525,
              9.621915045759145
            ],
            [
              106.29515243896202,
              9.622018327293972
            ],
            [
              106.29514393299256,
              9.622198990894038
            ],
            [
              106.2949210555985,
              9.622223915359502
            ],
            [
              106.29477579981673,
              9.62224866104775
            ],
            [
              106.29465220212823,
              9.622262688172494
            ],
            [
              106.29325612529682,
              9.622118254353056
            ],
            [
              106.29319821026279,
              9.622755343153498
            ],
            [
              106.2930723808412,
              9.622750117004154
            ],
            [
              106.29306896425535,
              9.62261333079868
            ],
            [
              106.29264418978893,
              9.62255752705236
            ],
            [
              106.29264767005907,
              9.622487178162388
            ],
            [
              106.29217348758719,
              9.622301654902621
            ],
            [
              106.29217015893875,
              9.622280686842842
            ],
            [
              106.29208263874298,
              9.622261115863317
            ],
            [
              106.29204393262074,
              9.62226144727908
            ],
            [
              106.29196803748893,
              9.622259722679447
            ],
            [
              106.291854297451,
              9.622242533896452
            ],
            [
              106.29173746915072,
              9.622232755022216
            ],
            [
              106.29163835938121,
              9.622235072679459
            ],
            [
              106.29142623129637,
              9.622249723151668
            ],
            [
              106.2913079703342,
              9.622218109052378
            ],
            [
              106.29127295662329,
              9.622202100928066
            ],
            [
              106.29119412533883,
              9.622194953063568
            ],
            [
              106.29098629312837,
              9.622186387913771
            ],
            [
              106.29091955068927,
              9.622189288113285
            ],
            [
              106.2907620522943,
              9.622173701236072
            ],
            [
              106.29072283788956,
              9.622169820358934
            ],
            [
              106.2905810483396,
              9.622183699385022
            ],
            [
              106.29051735595412,
              9.622218834834703
            ],
            [
              106.29034754341518,
              9.622222568780902
            ],
            [
              106.29016000160757,
              9.62220274554235
            ],
            [
              106.29013232420617,
              9.62209466427435
            ],
            [
              106.28904519592825,
              9.622030617492543
            ],
            [
              106.28899210875036,
              9.62196392391084
            ],
            [
              106.28881862069302,
              9.621914864563472
            ],
            [
              106.28849300323662,
              9.62187320467948
            ],
            [
              106.28845406656305,
              9.621897614556026
            ],
            [
              106.28827003327348,
              9.621897763434225
            ],
            [
              106.28814880745185,
              9.621795331442788
            ],
            [
              106.28820543265036,
              9.621619711418814
            ],
            [
              106.28596675353987,
              9.621409875692091
            ],
            [
              106.28567868494375,
              9.621382085755823
            ],
            [
              106.28493918938642,
              9.621417122000741
            ],
            [
              106.28431308068534,
              9.621562029326414
            ],
            [
              106.28430986365915,
              9.6216682714919
            ],
            [
              106.2839041362906,
              9.621851464586628
            ],
            [
              106.28415640856502,
              9.622160779494706
            ],
            [
              106.28382987214906,
              9.62229387313614
            ],
            [
              106.28374091061762,
              9.622815905189238
            ],
            [
              106.28368903104985,
              9.624142557329868
            ],
            [
              106.28360071408096,
              9.62432512009087
            ],
            [
              106.28352461991754,
              9.624316341932618
            ],
            [
              106.28322177114673,
              9.626842706411315
            ],
            [
              106.2854621695872,
              9.62735510622166
            ],
            [
              106.2854779094088,
              9.62898091042579
            ],
            [
              106.29653894773789,
              9.631593464049415
            ],
            [
              106.296595901435,
              9.630760125621798
            ],
            [
              106.29909240627697,
              9.631243343488064
            ],
            [
              106.29992648938072,
              9.631579839522452
            ],
            [
              106.30255435004021,
              9.63200661001449
            ],
            [
              106.30368201726529,
              9.63231880212615
            ],
            [
              106.30462932496222,
              9.632509015703471
            ],
            [
              106.30462932489912,
              9.632509015931852
            ]
          ]
        ]
      }
    }
  ]
}