{
"type": "FeatureCollection",
"name": "Ấp Định An",
"crs": { "type": "name", "properties": { "name": "urn:ogc:def:crs:OGC:1.3:CRS84" } },
"features": [
{ "type": "Feature", "properties": { "ten": "Ấp Định An", "ma": "3006006", "loai": "Ấp", "dien_tich_ha": "751.92", "dien_tich_km2": "7.5192", "dan_so": "3611", "so_ho": "745", "mat_do_km2": "480.24", "sap_nhap_tu": [ "Ấp Định An", "Ấp Cá Lóc", "Ấp Bến Tranh", "Ấp Vàm Bến Tranh" ], "center": [ 9.6194914094680719, 106.26869467711585 ] }, "geometry": { "type": "Polygon", "coordinates": [ [ [ 106.278446255232879, 9.607334759583072 ], [ 106.274826767159738, 9.605134484161205 ], [ 106.272378588978697, 9.602804935409491 ], [ 106.269787875667248, 9.604080728249848 ], [ 106.248788916002411, 9.616241700343027 ], [ 106.24440508123746, 9.620172472888232 ], [ 106.253696264915504, 9.627808947803802 ], [ 106.256075443067161, 9.627277567074254 ], [ 106.258082961916486, 9.627273163757025 ], [ 106.258572342981964, 9.628096906156774 ], [ 106.27695052238262, 9.626859726590398 ], [ 106.28546594862749, 9.628990502072588 ], [ 106.285462169261564, 9.627355106409055 ], [ 106.283221770819281, 9.626842706599762 ], [ 106.283524619917543, 9.624316341932618 ], [ 106.283600714080961, 9.624325120090869 ], [ 106.283689031049846, 9.624142557329868 ], [ 106.283740910617624, 9.622815905189238 ], [ 106.283829872149056, 9.62229387313614 ], [ 106.284156408241003, 9.622160779681169 ], [ 106.283904136290602, 9.621851464586628 ], [ 106.284156408565025, 9.622160779494706 ], [ 106.283904136290602, 9.621851464586628 ], [ 106.284309863659146, 9.621668271491901 ], [ 106.284313080685337, 9.621562029326414 ], [ 106.284939189386421, 9.621417122000741 ], [ 106.285678684943747, 9.621382085755823 ], [ 106.285966753541004, 9.621409875639888 ], [ 106.285966753551563, 9.621409875157401 ], [ 106.286164211699202, 9.612380444738308 ], [ 106.286218688351696, 9.610739221521765 ], [ 106.285947673133734, 9.610688388535822 ], [ 106.285765118749794, 9.610654147905992 ], [ 106.285510203430533, 9.61060633479449 ], [ 106.285400863002153, 9.610585826328846 ], [ 106.285302783752201, 9.610567430037024 ], [ 106.285198593518444, 9.610547887501792 ], [ 106.285120464829717, 9.610533233684743 ], [ 106.284812946274883, 9.610407608561585 ], [ 106.284333657229325, 9.610211813292432 ], [ 106.283391600485245, 9.609826969246804 ], [ 106.28286987768675, 9.609603045665104 ], [ 106.282025278170437, 9.609196604338564 ], [ 106.281235105911477, 9.608816351855193 ], [ 106.279547745984758, 9.608004339622344 ], [ 106.278446255232879, 9.607334759583072 ] ] ] } }
]
}
