{
  "type": "FeatureCollection",
  "name": "Ấp Chợ",
  "crs": {
    "type": "name",
    "properties": {
      "name": "urn:ogc:def:crs:OGC:1.3:CRS84"
    }
  },
  "features": [
    {
      "type": "Feature",
      "properties": {
        "ten": "Ấp Chợ",
        "ma": "3006001",
        "loai": "Ấp",
        "dien_tich_ha": "144.5",
        "dien_tich_km2": "1.4450",
        "dan_so": "3136",
        "so_ho": "705",
        "mat_do_km2": "2170.24",
        "sap_nhap_tu": [
          "Ấp Chợ",
          "Ấp Mé Rạch E",
          "Ấp Giồng Đình"
        ],
        "center": [
          9.63378963005795,
          106.29591672362672
        ]
      },
      "geometry": {
        "type": "Polygon",
        "coordinates": [
          [
            [
              106.29653894773789,
              9.631593464049415
            ],
            [
              106.296595901435,
              9.630760125621798
            ],
            [
              106.29909240627697,
              9.631243343488064
            ],
            [
              106.29992648938072,
              9.631579839522452
            ],
            [
              106.30255435004021,
              9.63200661001449
            ],
            [
              106.30368201726529,
              9.63231880212615
            ],
            [
              106.30462932520963,
              9.632509015753149
            ],
            [
              106.30459704139503,
              9.63261620658656
            ],
            [
              106.3045100550486,
              9.632922407954826
            ],
            [
              106.30446468899589,
              9.633082689594458
            ],
            [
              106.30440587781796,
              9.633248514825857
            ],
            [
              106.30435890883767,
              9.633237501511582
            ],
            [
              106.30281613637555,
              9.639233958696865
            ],
            [
              106.30239471883885,
              9.639142415512602
            ],
            [
              106.30230937730938,
              9.639413883254369
            ],
            [
              106.30222323553531,
              9.639387216094184
            ],
            [
              106.30229909924135,
              9.638996541941463
            ],
            [
              106.30232472740612,
              9.638864560943398
            ],
            [
              106.3019181500968,
              9.638765440002778
            ],
            [
              106.301679934514,
              9.63870353649256
            ],
            [
              106.30148732392888,
              9.638643047847884
            ],
            [
              106.30124829135177,
              9.63856798076152
            ],
            [
              106.3013526375891,
              9.638115496382426
            ],
            [
              106.30123695583588,
              9.638050035553706
            ],
            [
              106.30130678503936,
              9.637796357435226
            ],
            [
              106.30119335426522,
              9.637773412893369
            ],
            [
              106.30113736354215,
              9.637762087926436
            ],
            [
              106.30106687577873,
              9.637747830778041
            ],
            [
              106.30082601825069,
              9.637699113116339
            ],
            [
              106.30058020991142,
              9.637649394117355
            ],
            [
              106.30031444322873,
              9.637595638120942
            ],
            [
              106.29996160447908,
              9.637524269929758
            ],
            [
              106.2995678279585,
              9.63744462093228
            ],
            [
              106.29924367304494,
              9.637379054073955
            ],
            [
              106.29893044100004,
              9.637315696359167
            ],
            [
              106.29842295154683,
              9.637213045165604
            ],
            [
              106.29799278782336,
              9.637126034351791
            ],
            [
              106.29737096519932,
              9.637000254808541
            ],
            [
              106.29706763526067,
              9.63693889840913
            ],
            [
              106.2968455604426,
              9.636893977952656
            ],
            [
              106.29659873170635,
              9.636844050154535
            ],
            [
              106.2962160342325,
              9.636766638605712
            ],
            [
              106.29585082078894,
              9.636692763326767
            ],
            [
              106.29556964894998,
              9.636397808996797
            ],
            [
              106.29546665840124,
              9.636260506122236
            ],
            [
              106.29535445973724,
              9.63611092974536
            ],
            [
              106.29517079082727,
              9.636064397282501
            ],
            [
              106.29490461349158,
              9.635996962439195
            ],
            [
              106.29448763785105,
              9.635930242606634
            ],
            [
              106.2939955303239,
              9.63585025407391
            ],
            [
              106.29296334844283,
              9.635683685533898
            ],
            [
              106.29127572025615,
              9.635405989288353
            ],
            [
              106.28962423049776,
              9.63513844083038
            ],
            [
              106.28918554289665,
              9.635062652389747
            ],
            [
              106.2889748439798,
              9.63503566190901
            ],
            [
              106.28873660892107,
              9.635017603827247
            ],
            [
              106.28847861485592,
              9.63499771572467
            ],
            [
              106.28812296782013,
              9.634965053577899
            ],
            [
              106.2876917179175,
              9.63484420790734
            ],
            [
              106.28699011882698,
              9.634681620386717
            ],
            [
              106.28611095664692,
              9.634424141307438
            ],
            [
              106.28552568097727,
              9.63412901823136
            ],
            [
              106.2852467796942,
              9.633991426582492
            ],
            [
              106.28496015944334,
              9.633850216985357
            ],
            [
              106.2849577079527,
              9.633498809376961
            ],
            [
              106.2849638666947,
              9.63281265433668
            ],
            [
              106.28498939603428,
              9.632111085058261
            ],
            [
              106.28508416545361,
              9.63192109340868
            ],
            [
              106.28506613279961,
              9.631754532755153
            ],
            [
              106.28502478492474,
              9.631484840292469
            ],
            [
              106.28503887500315,
              9.631209042783063
            ],
            [
              106.28511047839933,
              9.630060342587917
            ],
            [
              106.28511947627315,
              9.629853729353291
            ],
            [
              106.28544172483915,
              9.629279817836046
            ],
            [
              106.2854847517477,
              9.629193880759223
            ],
            [
              106.28548060447841,
              9.629055106882408
            ],
            [
              106.2854779094088,
              9.62898091042579
            ],
            [
              106.29653894773789,
              9.631593464049415
            ]
          ]
        ]
      }
    }
  ]
}