{
  "type": "FeatureCollection",
  "name": "Ấp Trà Kha",
  "crs": {
    "type": "name",
    "properties": {
      "name": "urn:ogc:def:crs:OGC:1.3:CRS84"
    }
  },
  "features": [
    {
      "type": "Feature",
      "properties": {
        "ten": "Ấp Trà Kha",
        "ma": "3006002",
        "loai": "Ấp",
        "dien_tich_ha": "328.53",
        "dien_tich_km2": "3.2853",
        "dan_so": "3087",
        "so_ho": "704",
        "mat_do_km2": "939.64",
        "sap_nhap_tu": [
          "Ấp Cây Da",
          "Ấp Trà Kha"
        ]
      },
      "geometry": {
        "type": "Polygon",
        "coordinates": [
          [
            [
              106.31905192282717,
              9.634224764209023
            ],
            [
              106.31905192282717,
              9.634224764209023
            ],
            [
              106.31897608453845,
              9.634474300181688
            ],
            [
              106.31879749917643,
              9.635035910569098
            ],
            [
              106.31876000011198,
              9.63520271905305
            ],
            [
              106.31872478482909,
              9.63533426148953
            ],
            [
              106.31865404930895,
              9.635433068738601
            ],
            [
              106.31847772442218,
              9.635950100602095
            ],
            [
              106.31823779728484,
              9.63661519712536
            ],
            [
              106.3181581641631,
              9.636840511602113
            ],
            [
              106.3181397806441,
              9.636886846091212
            ],
            [
              106.3180686484564,
              9.637085920944974
            ],
            [
              106.3180467713561,
              9.637157036568476
            ],
            [
              106.31796667106853,
              9.637415442863688
            ],
            [
              106.3178673175884,
              9.637737454353633
            ],
            [
              106.31793917344369,
              9.637763051282466
            ],
            [
              106.31799649731948,
              9.637731904024823
            ],
            [
              106.31800506743313,
              9.637734324813195
            ],
            [
              106.3179446534942,
              9.63788211070012
            ],
            [
              106.31787771407413,
              9.638044197132423
            ],
            [
              106.31780453968766,
              9.638227725955161
            ],
            [
              106.31766241282092,
              9.638532027723267
            ],
            [
              106.31753836408562,
              9.638852379890803
            ],
            [
              106.31742662022518,
              9.639137080577132
            ],
            [
              106.31730535259572,
              9.639439614953893
            ],
            [
              106.31723416094616,
              9.639614369038515
            ],
            [
              106.31721639230865,
              9.639651299201729
            ],
            [
              106.31731767719359,
              9.639714799445533
            ],
            [
              106.31741304914628,
              9.639782110975128
            ],
            [
              106.31740735290244,
              9.639838089423197
            ],
            [
              106.31737855578022,
              9.639986794803015
            ],
            [
              106.31734580783909,
              9.640121766946265
            ],
            [
              106.31736358333764,
              9.640125522096929
            ],
            [
              106.31731669804816,
              9.640291991086546
            ],
            [
              106.31720353906084,
              9.640632479203559
            ],
            [
              106.31709606807081,
              9.640989318358248
            ],
            [
              106.31699080659521,
              9.641332840614998
            ],
            [
              106.31696622062863,
              9.64132529429143
            ],
            [
              106.31691695435113,
              9.641485199919721
            ],
            [
              106.31686832608386,
              9.641646881170725
            ],
            [
              106.3168767472163,
              9.64170092750546
            ],
            [
              106.31677876428826,
              9.642025376659417
            ],
            [
              106.31677108847475,
              9.64205387458662
            ],
            [
              106.31691710668751,
              9.642116274342955
            ],
            [
              106.31705950078984,
              9.642187090927203
            ],
            [
              106.31702346577964,
              9.642281385508209
            ],
            [
              106.31690647776357,
              9.642583367193085
            ],
            [
              106.31688170312798,
              9.642662174644698
            ],
            [
              106.31688369587765,
              9.642695170248835
            ],
            [
              106.3168726095292,
              9.642782986439602
            ],
            [
              106.31681006923407,
              9.64291848122502
            ],
            [
              106.31669620502639,
              9.64315572056606
            ],
            [
              106.31696743838835,
              9.643267730830086
            ],
            [
              106.31720328515698,
              9.643364906829438
            ],
            [
              106.3174108311976,
              9.643438642709128
            ],
            [
              106.3178583910869,
              9.643599417964884
            ],
            [
              106.318308912652,
              9.643741379911834
            ],
            [
              106.3187687705793,
              9.643901039768995
            ],
            [
              106.31877716168962,
              9.643904726715018
            ],
            [
              106.31911296772695,
              9.644043614870375
            ],
            [
              106.31961384725908,
              9.644249647675874
            ],
            [
              106.32004681520709,
              9.644479167572701
            ],
            [
              106.32047456197735,
              9.64469694577808
            ],
            [
              106.32096709238287,
              9.644953626929697
            ],
            [
              106.32095004516614,
              9.64498739113369
            ],
            [
              106.32128939664933,
              9.645159901723884
            ],
            [
              106.32170924374219,
              9.645388184846741
            ],
            [
              106.32161825148972,
              9.64558785014941
            ],
            [
              106.32161727510723,
              9.645598521063183
            ],
            [
              106.3212468762721,
              9.646263207219906
            ],
            [
              106.32101019627599,
              9.64672649867676
            ],
            [
              106.32097658075301,
              9.646766088723888
            ],
            [
              106.32093138950168,
              9.646803807707407
            ],
            [
              106.32088788612577,
              9.646786009849409
            ],
            [
              106.32080457513031,
              9.646733950371157
            ],
            [
              106.32069405670421,
              9.646621018166485
            ],
            [
              106.32044477187618,
              9.647034070399037
            ],
            [
              106.32064665840761,
              9.647139913728184
            ],
            [
              106.32101980440062,
              9.647345886646814
            ],
            [
              106.32108751386961,
              9.647389032482932
            ],
            [
              106.32129785182131,
              9.647485633252241
            ],
            [
              106.32143525282059,
              9.647524996372853
            ],
            [
              106.32154674776645,
              9.647551853992935
            ],
            [
              106.32162644462336,
              9.64757869701196
            ],
            [
              106.3217948893043,
              9.647682720729414
            ],
            [
              106.32130371627528,
              9.648891521727096
            ],
            [
              106.32122542415078,
              9.649068644174566
            ],
            [
              106.32115140154694,
              9.649014754453926
            ],
            [
              106.32057913551778,
              9.648680238753482
            ],
            [
              106.31997970854077,
              9.648303654786037
            ],
            [
              106.31979584343655,
              9.648642594102414
            ],
            [
              106.3192701264165,
              9.648454341931522
            ],
            [
              106.31895933433239,
              9.648337726556141
            ],
            [
              106.31891860419621,
              9.648411961060468
            ],
            [
              106.31887568635294,
              9.648448046989394
            ],
            [
              106.31883259029352,
              9.648448059035008
            ],
            [
              106.31877134563535,
              9.648403179560173
            ],
            [
              106.31877126967896,
              9.64837171643888
            ],
            [
              106.31880520301273,
              9.64827489516064
            ],
            [
              106.31859870142517,
              9.648182261856613
            ],
            [
              106.31866718661482,
              9.648018363334074
            ],
            [
              106.31846582141898,
              9.647902029834942
            ],
            [
              106.31836399408598,
              9.647841424637933
            ],
            [
              106.31818084267296,
              9.647721431208833
            ],
            [
              106.31816888743379,
              9.647713322543522
            ],
            [
              106.31808596277328,
              9.647632510523303
            ],
            [
              106.31795683917397,
              9.64754954789154
            ],
            [
              106.31787501427786,
              9.64750914728041
            ],
            [
              106.31756669329756,
              9.647358801058454
            ],
            [
              106.31759333118436,
              9.647372570842494
            ],
            [
              106.3172614734287,
              9.648155058965118
            ],
            [
              106.31721286604063,
              9.64828780843529
            ],
            [
              106.31640806322736,
              9.648095060294718
            ],
            [
              106.31635923156617,
              9.648248333690043
            ],
            [
              106.31620399041415,
              9.648216334156777
            ],
            [
              106.31606341457265,
              9.6481827628042
            ],
            [
              106.3158065382499,
              9.648132017381878
            ],
            [
              106.31579131498476,
              9.648128889022964
            ],
            [
              106.31547069097581,
              9.648090951980283
            ],
            [
              106.31539577129512,
              9.64808037033387
            ],
            [
              106.3152054629231,
              9.648052883530328
            ],
            [
              106.3149741984999,
              9.648005964561829
            ],
            [
              106.3147759758484,
              9.647983649717006
            ],
            [
              106.31449700112324,
              9.64795022423102
            ],
            [
              106.31428165494383,
              9.647930209884223
            ],
            [
              106.31396795112441,
              9.647928329398795
            ],
            [
              106.31371535069427,
              9.647912742498981
            ],
            [
              106.31371450615744,
              9.647978473943358
            ],
            [
              106.31366221129129,
              9.647979953658476
            ],
            [
              106.31362074505374,
              9.647975711837766
            ],
            [
              106.31358206749576,
              9.647956545461653
            ],
            [
              106.31352702434806,
              9.647913820227728
            ],
            [
              106.31351632134296,
              9.647895943949665
            ],
            [
              106.3135090636686,
              9.64787100740578
            ],
            [
              106.31346441504118,
              9.647869485438124
            ],
            [
              106.31343296047808,
              9.64786078976619
            ],
            [
              106.31338847976488,
              9.647853300206311
            ],
            [
              106.31332258065419,
              9.647842877621763
            ],
            [
              106.31332564723185,
              9.647829851066431
            ],
            [
              106.31318359849232,
              9.647827835735999
            ],
            [
              106.3127665894213,
              9.647832617262614
            ],
            [
              106.31242562722372,
              9.64786217262
            ],
            [
              106.3120901370538,
              9.6478939750417
            ],
            [
              106.3117094822027,
              9.647937094657896
            ],
            [
              106.31137414739852,
              9.647995838787166
            ],
            [
              106.3111906423874,
              9.648031893310112
            ],
            [
              106.31105347582829,
              9.648052197361284
            ],
            [
              106.3108401986935,
              9.648059209154821
            ],
            [
              106.31075136145266,
              9.648058062092046
            ],
            [
              106.31040521303997,
              9.648052728668652
            ],
            [
              106.30993847899428,
              9.648028963187919
            ],
            [
              106.30973831784799,
              9.648759329704907
            ],
            [
              106.30961341824451,
              9.649262042690777
            ],
            [
              106.30958487381135,
              9.649251079529881
            ],
            [
              106.30958091300849,
              9.649271250711655
            ],
            [
              106.30930977853438,
              9.649163755223817
            ],
            [
              106.30899725193227,
              9.649044874415361
            ],
            [
              106.30888856587246,
              9.649011406021247
            ],
            [
              106.30836747301147,
              9.648888403377862
            ],
            [
              106.30740684039122,
              9.648645097648338
            ],
            [
              106.3073234339301,
              9.648628928584598
            ],
            [
              106.30728882920566,
              9.64875133717185
            ],
            [
              106.30726374008856,
              9.648813961102132
            ],
            [
              106.3072410333013,
              9.648843940704635
            ],
            [
              106.30722732823283,
              9.648904458474295
            ],
            [
              106.30718582479798,
              9.6491143116563
            ],
            [
              106.30713204315933,
              9.649409994626199
            ],
            [
              106.30709020103471,
              9.649707277026007
            ],
            [
              106.30703632470504,
              9.650001513614576
            ],
            [
              106.30699155632283,
              9.650294372673311
            ],
            [
              106.30694376352594,
              9.6505798250285
            ],
            [
              106.30690171442163,
              9.650866800924256
            ],
            [
              106.30685682657162,
              9.651147816273928
            ],
            [
              106.30684893623739,
              9.651201449094177
            ],
            [
              106.30680167088958,
              9.65144060924147
            ],
            [
              106.30678932236282,
              9.651535209154508
            ],
            [
              106.30676281454875,
              9.651690960772735
            ],
            [
              106.30675116780333,
              9.651774167125128
            ],
            [
              106.3067463107429,
              9.651800669228871
            ],
            [
              106.30644769300014,
              9.651822525189623
            ],
            [
              106.30644005503866,
              9.651877608657603
            ],
            [
              106.30637906145799,
              9.651889410010575
            ],
            [
              106.30624316870637,
              9.651909799716332
            ],
            [
              106.30619332971771,
              9.651909826004117
            ],
            [
              106.30602221341849,
              9.651945939380095
            ],
            [
              106.3059610654917,
              9.652018050505061
            ],
            [
              106.30592055892193,
              9.652072754194096
            ],
            [
              106.30589994397427,
              9.652101282240228
            ],
            [
              106.30589677465765,
              9.652339525386672
            ],
            [
              106.30560259205987,
              9.65238758976755
            ],
            [
              106.30521712492839,
              9.652478813133133
            ],
            [
              106.30516413053103,
              9.65253137606223
            ],
            [
              106.3050414690534,
              9.65263699294561
            ],
            [
              106.30493766694468,
              9.652703778924595
            ],
            [
              106.30479314985779,
              9.652699234524178
            ],
            [
              106.30476038893131,
              9.652677702620988
            ],
            [
              106.30467436748762,
              9.65263504836512
            ],
            [
              106.30455193870304,
              9.652570056973824
            ],
            [
              106.30441399133956,
              9.652492715339816
            ],
            [
              106.30412681656796,
              9.652345562437905
            ],
            [
              106.30384209436649,
              9.652195148714446
            ],
            [
              106.30378781800141,
              9.65216824221565
            ],
            [
              106.30378772667402,
              9.652168152016772
            ],
            [
              106.30379210311263,
              9.652130982432546
            ],
            [
              106.30363193675137,
              9.652020420676466
            ],
            [
              106.3031384536729,
              9.651707570910599
            ],
            [
              106.30291883445499,
              9.65153856041187
            ],
            [
              106.30260615283046,
              9.65135439662823
            ],
            [
              106.30231868242414,
              9.651197116601956
            ],
            [
              106.30209720509457,
              9.651051164937723
            ],
            [
              106.30184464951802,
              9.650901488175414
            ],
            [
              106.30164267534302,
              9.650795995407922
            ],
            [
              106.30154751288875,
              9.6507404326415
            ],
            [
              106.30133590359476,
              9.6506445457929
            ],
            [
              106.30118043819449,
              9.650556303629939
            ],
            [
              106.3010465574771,
              9.650502729447087
            ],
            [
              106.30082517191858,
              9.650433807824298
            ],
            [
              106.30059220168563,
              9.65035921701827
            ],
            [
              106.30017881980288,
              9.650242732405205
            ],
            [
              106.29999862981812,
              9.650178958404666
            ],
            [
              106.29999327270272,
              9.650176776306262
            ],
            [
              106.3009793276163,
              9.64659431533776
            ],
            [
              106.3016407394356,
              9.643830233118692
            ],
            [
              106.30203148470282,
              9.642186672219974
            ],
            [
              106.30245199633927,
              9.64066960382307
            ],
            [
              106.30276847903303,
              9.639455226736668
            ],
            [
              106.30350200741697,
              9.636640572657962
            ],
            [
              106.30407267563899,
              9.634427399708903
            ],
            [
              106.30435890883767,
              9.633237501511582
            ],
            [
              106.30526047799536,
              9.633448900715214
            ],
            [
              106.30551022559915,
              9.633495422327998
            ],
            [
              106.30609914034578,
              9.633625325013792
            ],
            [
              106.30680660318431,
              9.633876824924679
            ],
            [
              106.30805435623307,
              9.634189273814822
            ],
            [
              106.30866523888962,
              9.634277023674285
            ],
            [
              106.3094486274364,
              9.634394505084574
            ],
            [
              106.30999965328444,
              9.634461644363967
            ],
            [
              106.31044290026614,
              9.634518399037598
            ],
            [
              106.31089278573342,
              9.634556539768496
            ],
            [
              106.31149847964299,
              9.6345331993521
            ],
            [
              106.31200242181285,
              9.634505445744898
            ],
            [
              106.31204110963047,
              9.63435430333067
            ],
            [
              106.31198332765058,
              9.634346302283125
            ],
            [
              106.31198295460432,
              9.634190252042782
            ],
            [
              106.312056795247,
              9.634017572103408
            ],
            [
              106.31207312886878,
              9.633951894534492
            ],
            [
              106.31206478535769,
              9.633910821922004
            ],
            [
              106.31203578282691,
              9.633841092133553
            ],
            [
              106.31201512380838,
              9.633812434956477
            ],
            [
              106.31207279162422,
              9.63379177566956
            ],
            [
              106.31213045943231,
              9.633771116373545
            ],
            [
              106.31216311916171,
              9.633598533374762
            ],
            [
              106.31216258912906,
              9.633376844389025
            ],
            [
              106.31221043100118,
              9.632695115636984
            ],
            [
              106.31320881521839,
              9.632742038102108
            ],
            [
              106.31394326793018,
              9.632830627529039
            ],
            [
              106.31389488592679,
              9.633323486914172
            ],
            [
              106.3148354661294,
              9.633352458494427
            ],
            [
              106.31509957514446,
              9.63338465405212
            ],
            [
              106.31547102420964,
              9.633498780110632
            ],
            [
              106.31575981610278,
              9.633489869780412
            ],
            [
              106.3190518743496,
              9.634224923718271
            ],
            [
              106.31786893672482,
              9.637732206625092
            ],
            [
              106.31793917344369,
              9.637763051282466
            ],
            [
              106.31800506743313,
              9.637734324813195
            ],
            [
              106.31905192282717,
              9.634224764209023
            ]
          ]
        ]
      }
    }
  ]
}